{
  "type": "FeatureCollection",
  "features": [
    {
      "type": "Feature",
      "properties": {
        "norad_id": 28054,
        "name": "DMSP 5D-3 F16 (USA 172)",
        "group": "weather",
        "lat": 79.1915070098948,
        "lon": -55.49135257222684,
        "alt_km": 838.6965519833402,
        "timestamp": "2025-12-09T05:43:20.369517+00:00",
        "meta_object_name": "DMSP 5D-3 F16 (USA 172)",
        "meta_object_id": "2003-048A",
        "meta_epoch": "2025-12-08T19:57:45.086976",
        "meta_mean_motion": 14.1442234,
        "meta_eccentricity": 0.0006643,
        "meta_inclination": 99.0048,
        "meta_ra_of_asc_node": 0.258,
        "meta_arg_of_pericenter": 332.9973,
        "meta_mean_anomaly": 201.427,
        "meta_ephemeris_type": 0,
        "meta_classification_type": "U",
        "meta_norad_cat_id": 28054,
        "meta_element_set_no": 999,
        "meta_rev_at_epoch": 14257,
        "meta_bstar": 0.00016481,
        "meta_mean_motion_dot": 2.7e-06,
        "meta_mean_motion_ddot": 0,
        "tle_line1": "1 28054U 03048A   25342.83177184  .00000270  00000+0  16481-3 0  9990",
        "tle_line2": "2 28054  99.0048   0.2580 0006643 332.9973 201.4270 14.14422340142571"
      },
      "geometry": {
        "type": "Point",
        "coordinates": [
          -55.49135257222684,
          79.1915070098948
        ]
      }
    },
    {
      "type": "Feature",
      "properties": {
        "norad_id": 28912,
        "name": "METEOSAT-9 (MSG-2)",
        "group": "weather",
        "lat": 3.9406419469698926,
        "lon": -150.04468216034508,
        "alt_km": 35771.699517488676,
        "timestamp": "2025-12-09T05:43:20.369569+00:00",
        "meta_object_name": "METEOSAT-9 (MSG-2)",
        "meta_object_id": "2005-049B",
        "meta_epoch": "2025-12-08T18:57:30.076416",
        "meta_mean_motion": 1.00274224,
        "meta_eccentricity": 0.0003847,
        "meta_inclination": 8.9308,
        "meta_ra_of_asc_node": 56.0129,
        "meta_arg_of_pericenter": 189.6546,
        "meta_mean_anomaly": 162.1245,
        "meta_ephemeris_type": 0,
        "meta_classification_type": "U",
        "meta_norad_cat_id": 28912,
        "meta_element_set_no": 999,
        "meta_rev_at_epoch": 508,
        "meta_bstar": 0,
        "meta_mean_motion_dot": 1.23e-06,
        "meta_mean_motion_ddot": 0,
        "tle_line1": "1 28912U 05049B   25342.78993144  .00000123  00000+0  00000+0 0  9995",
        "tle_line2": "2 28912   8.9308  56.0129 0003847 189.6546 162.1245  1.00274224  5082"
      },
      "geometry": {
        "type": "Point",
        "coordinates": [
          -150.04468216034508,
          3.9406419469698926
        ]
      }
    },
    {
      "type": "Feature",
      "properties": {
        "norad_id": 29522,
        "name": "DMSP 5D-3 F17 (USA 191)",
        "group": "weather",
        "lat": 17.910622934185835,
        "lon": -14.149168157246915,
        "alt_km": 848.218263228956,
        "timestamp": "2025-12-09T05:43:20.369587+00:00",
        "meta_object_name": "DMSP 5D-3 F17 (USA 191)",
        "meta_object_id": "2006-050A",
        "meta_epoch": "2025-12-08T19:27:13.725792",
        "meta_mean_motion": 14.14917266,
        "meta_eccentricity": 0.0009272,
        "meta_inclination": 98.7393,
        "meta_ra_of_asc_node": 348.2815,
        "meta_arg_of_pericenter": 236.9924,
        "meta_mean_anomaly": 123.0359,
        "meta_ephemeris_type": 0,
        "meta_classification_type": "U",
        "meta_norad_cat_id": 29522,
        "meta_element_set_no": 999,
        "meta_rev_at_epoch": 98549,
        "meta_bstar": 0.00019364,
        "meta_mean_motion_dot": 3.31e-06,
        "meta_mean_motion_ddot": 0,
        "tle_line1": "1 29522U 06050A   25342.81057553  .00000331  00000+0  19364-3 0  9993",
        "tle_line2": "2 29522  98.7393 348.2815 0009272 236.9924 123.0359 14.14917266985496"
      },
      "geometry": {
        "type": "Point",
        "coordinates": [
          -14.149168157246915,
          17.910622934185835
        ]
      }
    },
    {
      "type": "Feature",
      "properties": {
        "norad_id": 32958,
        "name": "FENGYUN 3A",
        "group": "weather",
        "lat": 33.91027607020654,
        "lon": -83.04776826713243,
        "alt_km": 823.0768486026291,
        "timestamp": "2025-12-09T05:43:20.369600+00:00",
        "meta_object_name": "FENGYUN 3A",
        "meta_object_id": "2008-026A",
        "meta_epoch": "2025-12-08T19:24:39.976128",
        "meta_mean_motion": 14.19512827,
        "meta_eccentricity": 0.0008079,
        "meta_inclination": 98.6693,
        "meta_ra_of_asc_node": 282.4185,
        "meta_arg_of_pericenter": 322.7735,
        "meta_mean_anomaly": 37.2881,
        "meta_ephemeris_type": 0,
        "meta_classification_type": "U",
        "meta_norad_cat_id": 32958,
        "meta_element_set_no": 999,
        "meta_rev_at_epoch": 90839,
        "meta_bstar": 0.00014393,
        "meta_mean_motion_dot": 2.6e-06,
        "meta_mean_motion_ddot": 0,
        "tle_line1": "1 32958U 08026A   25342.80879602  .00000260  00000+0  14393-3 0  9999",
        "tle_line2": "2 32958  98.6693 282.4185 0008079 322.7735  37.2881 14.19512827908391"
      },
      "geometry": {
        "type": "Point",
        "coordinates": [
          -83.04776826713243,
          33.91027607020654
        ]
      }
    },
    {
      "type": "Feature",
      "properties": {
        "norad_id": 35491,
        "name": "GOES 14",
        "group": "weather",
        "lat": -0.5689276745152679,
        "lon": 55.77210338672263,
        "alt_km": 35802.99103742915,
        "timestamp": "2025-12-09T05:43:20.369615+00:00",
        "meta_object_name": "GOES 14",
        "meta_object_id": "2009-033A",
        "meta_epoch": "2025-12-08T16:30:50.524128",
        "meta_mean_motion": 1.00273094,
        "meta_eccentricity": 0.0004078,
        "meta_inclination": 1.1889,
        "meta_ra_of_asc_node": 85.4511,
        "meta_arg_of_pericenter": 154.4417,
        "meta_mean_anomaly": 337.2035,
        "meta_ephemeris_type": 0,
        "meta_classification_type": "U",
        "meta_norad_cat_id": 35491,
        "meta_element_set_no": 999,
        "meta_rev_at_epoch": 468,
        "meta_bstar": 0,
        "meta_mean_motion_dot": -6.6e-07,
        "meta_mean_motion_ddot": 0,
        "tle_line1": "1 35491U 09033A   25342.68808477 -.00000066  00000+0  00000+0 0  9992",
        "tle_line2": "2 35491   1.1889  85.4511 0004078 154.4417 337.2035  1.00273094  4687"
      },
      "geometry": {
        "type": "Point",
        "coordinates": [
          55.77210338672263,
          -0.5689276745152679
        ]
      }
    },
    {
      "type": "Feature",
      "properties": {
        "norad_id": 35951,
        "name": "DMSP 5D-3 F18 (USA 210)",
        "group": "weather",
        "lat": -65.87863500483091,
        "lon": 119.21432671764555,
        "alt_km": 859.0215116045765,
        "timestamp": "2025-12-09T05:43:20.369628+00:00",
        "meta_object_name": "DMSP 5D-3 F18 (USA 210)",
        "meta_object_id": "2009-057A",
        "meta_epoch": "2025-12-08T20:04:12.844128",
        "meta_mean_motion": 14.14765938,
        "meta_eccentricity": 0.0012105,
        "meta_inclination": 98.883,
        "meta_ra_of_asc_node": 319.2567,
        "meta_arg_of_pericenter": 72.917,
        "meta_mean_anomaly": 287.3328,
        "meta_ephemeris_type": 0,
        "meta_classification_type": "U",
        "meta_norad_cat_id": 35951,
        "meta_element_set_no": 999,
        "meta_rev_at_epoch": 83267,
        "meta_bstar": 0.00027901,
        "meta_mean_motion_dot": 4.94e-06,
        "meta_mean_motion_ddot": 0,
        "tle_line1": "1 35951U 09057A   25342.83625977  .00000494  00000+0  27901-3 0  9995",
        "tle_line2": "2 35951  98.8830 319.2567 0012105  72.9170 287.3328 14.14765938832676"
      },
      "geometry": {
        "type": "Point",
        "coordinates": [
          119.21432671764555,
          -65.87863500483091
        ]
      }
    },
    {
      "type": "Feature",
      "properties": {
        "norad_id": 36411,
        "name": "EWS-G2 (GOES 15)",
        "group": "weather",
        "lat": 0.5047926771911385,
        "lon": -134.53299155785032,
        "alt_km": 35765.84223716118,
        "timestamp": "2025-12-09T05:43:20.369645+00:00",
        "meta_object_name": "EWS-G2 (GOES 15)",
        "meta_object_id": "2010-008A",
        "meta_epoch": "2025-12-08T18:22:38.831808",
        "meta_mean_motion": 1.00268753,
        "meta_eccentricity": 0.0005956,
        "meta_inclination": 0.804,
        "meta_ra_of_asc_node": 86.0569,
        "meta_arg_of_pericenter": 173.081,
        "meta_mean_anomaly": 155.7327,
        "meta_ephemeris_type": 0,
        "meta_classification_type": "U",
        "meta_norad_cat_id": 36411,
        "meta_element_set_no": 999,
        "meta_rev_at_epoch": 5772,
        "meta_bstar": 0,
        "meta_mean_motion_dot": 4e-07,
        "meta_mean_motion_ddot": 0,
        "tle_line1": "1 36411U 10008A   25342.76572722  .00000040  00000+0  00000+0 0  9990",
        "tle_line2": "2 36411   0.8040  86.0569 0005956 173.0810 155.7327  1.00268753 57721"
      },
      "geometry": {
        "type": "Point",
        "coordinates": [
          -134.53299155785032,
          0.5047926771911385
        ]
      }
    }
  ]
}